[{"OBJECT_NAME":"STARLINK-3210","OBJECT_ID":"2021-115AH","EPOCH":"2026-01-15T08:17:28.997664","MEAN_MOTION":15.08838375,"ECCENTRICITY":0.00013549,"INCLINATION":53.2189,"RA_OF_ASC_NODE":28.6417,"ARG_OF_PERICENTER":87.3703,"MEAN_ANOMALY":272.7444,"EPHEMERIS_TYPE":0,"CLASSIFICATION_TYPE":"U","NORAD_CAT_ID":49755,"ELEMENT_SET_NO":999,"REV_AT_EPOCH":22748,"BSTAR":3.808596e-6,"MEAN_MOTION_DOT":-2.27e-6,"MEAN_MOTION_DDOT":0},{"OBJECT_NAME":"STARLINK-3207","OBJECT_ID":"2021-115AJ","EPOCH":"2026-01-15T10:19:18.062688","MEAN_MOTION":15.0883854,"ECCENTRICITY":0.00015389,"INCLINATION":53.2192,"RA_OF_ASC_NODE":18.2119,"ARG_OF_PERICENTER":79.4486,"MEAN_ANOMALY":280.6679,"EPHEMERIS_TYPE":0,"CLASSIFICATION_TYPE":"U","NORAD_CAT_ID":49756,"ELEMENT_SET_NO":999,"REV_AT_EPOCH":22763,"BSTAR":1.7868357e-5,"MEAN_MOTION_DOT":-4.0e-8,"MEAN_MOTION_DDOT":0},{"OBJECT_NAME":"STARLINK-3197","OBJECT_ID":"2021-115AK","EPOCH":"2026-01-15T22:53:10.110336","MEAN_MOTION":15.08840079,"ECCENTRICITY":0.00014855,"INCLINATION":53.2204,"RA_OF_ASC_NODE":15.872,"ARG_OF_PERICENTER":68.4324,"MEAN_ANOMALY":291.6826,"EPHEMERIS_TYPE":0,"CLASSIFICATION_TYPE":"U","NORAD_CAT_ID":49757,"ELEMENT_SET_NO":999,"REV_AT_EPOCH":22771,"BSTAR":5.7124379e-5,"MEAN_MOTION_DOT":6.21e-6,"MEAN_MOTION_DDOT":0},{"OBJECT_NAME":"STARLINK-3194","OBJECT_ID":"2021-115AL","EPOCH":"2026-01-15T08:54:30.055680","MEAN_MOTION":15.08844395,"ECCENTRICITY":0.00013862,"INCLINATION":53.2196,"RA_OF_ASC_NODE":18.4763,"ARG_OF_PERICENTER":89.174,"MEAN_ANOMALY":270.9411,"EPHEMERIS_TYPE":0,"CLASSIFICATION_TYPE":"U","NORAD_CAT_ID":49758,"ELEMENT_SET_NO":999,"REV_AT_EPOCH":22762,"BSTAR":5.6470219e-5,"MEAN_MOTION_DOT":6.11e-6,"MEAN_MOTION_DDOT":0},{"OBJECT_NAME":"STARLINK-3204","OBJECT_ID":"2021-115AM","EPOCH":"2026-01-15T03:52:27.825888","MEAN_MOTION":15.08843146,"ECCENTRICITY":0.00013756,"INCLINATION":53.2196,"RA_OF_ASC_NODE":19.4171,"ARG_OF_PERICENTER":87.4047,"MEAN_ANOMALY":272.7102,"EPHEMERIS_TYPE":0,"CLASSIFICATION_TYPE":"U","NORAD_CAT_ID":49759,"ELEMENT_SET_NO":999,"REV_AT_EPOCH":22759,"BSTAR":2.563796e-6,"MEAN_MOTION_DOT":-2.47e-6,"MEAN_MOTION_DDOT":0},{"OBJECT_NAME":"STARLINK-3199","OBJECT_ID":"2021-115AN","EPOCH":"2026-01-15T09:05:07.001664","MEAN_MOTION":15.08837555,"ECCENTRICITY":0.00013797,"INCLINATION":53.2195,"RA_OF_ASC_NODE":18.4448,"ARG_OF_PERICENTER":92.475,"MEAN_ANOMALY":267.64,"EPHEMERIS_TYPE":0,"CLASSIFICATION_TYPE":"U","NORAD_CAT_ID":49760,"ELEMENT_SET_NO":999,"REV_AT_EPOCH":22763,"BSTAR":2.5196765e-5,"MEAN_MOTION_DOT":1.13e-6,"MEAN_MOTION_DDOT":0},{"OBJECT_NAME":"STARLINK-3203","OBJECT_ID":"2021-115AP","EPOCH":"2026-01-15T10:24:36.031104","MEAN_MOTION":15.08849106,"ECCENTRICITY":0.00012849,"INCLINATION":53.2202,"RA_OF_ASC_NODE":18.196,"ARG_OF_PERICENTER":80.7046,"MEAN_ANOMALY":279.4092,"EPHEMERIS_TYPE":0,"CLASSIFICATION_TYPE":"U","NORAD_CAT_ID":49761,"ELEMENT_SET_NO":999,"REV_AT_EPOCH":22763,"BSTAR":-7.771951e-6,"MEAN_MOTION_DOT":-4.12e-6,"MEAN_MOTION_DDOT":0},{"OBJECT_NAME":"STARLINK-3195","OBJECT_ID":"2021-115AQ","EPOCH":"2026-01-15T09:15:44.324352","MEAN_MOTION":15.08833579,"ECCENTRICITY":0.00015326,"INCLINATION":53.2184,"RA_OF_ASC_NODE":18.4123,"ARG_OF_PERICENTER":101.3074,"MEAN_ANOMALY":258.809,"EPHEMERIS_TYPE":0,"CLASSIFICATION_TYPE":"U","NORAD_CAT_ID":49762,"ELEMENT_SET_NO":999,"REV_AT_EPOCH":22763,"BSTAR":0.00010994266,"MEAN_MOTION_DOT":1.462e-5,"MEAN_MOTION_DDOT":0},{"OBJECT_NAME":"STARLINK-3198","OBJECT_ID":"2021-115AR","EPOCH":"2026-01-15T04:13:39.772992","MEAN_MOTION":15.0883798,"ECCENTRICITY":0.00014881,"INCLINATION":53.2191,"RA_OF_ASC_NODE":19.3525,"ARG_OF_PERICENTER":88.9626,"MEAN_ANOMALY":271.1536,"EPHEMERIS_TYPE":0,"CLASSIFICATION_TYPE":"U","NORAD_CAT_ID":49763,"ELEMENT_SET_NO":999,"REV_AT_EPOCH":22760,"BSTAR":1.6112617e-5,"MEAN_MOTION_DOT":-3.2e-7,"MEAN_MOTION_DDOT":0},{"OBJECT_NAME":"STARLINK-3227","OBJECT_ID":"2021-115AT","EPOCH":"2026-01-15T23:30:15.841728","MEAN_MOTION":15.08838121,"ECCENTRICITY":0.00015177,"INCLINATION":53.2198,"RA_OF_ASC_NODE":15.7568,"ARG_OF_PERICENTER":90.846,"MEAN_ANOMALY":269.2706,"EPHEMERIS_TYPE":0,"CLASSIFICATION_TYPE":"U","NORAD_CAT_ID":49765,"ELEMENT_SET_NO":999,"REV_AT_EPOCH":22772,"BSTAR":1.1637289e-5,"MEAN_MOTION_DOT":-1.03e-6,"MEAN_MOTION_DDOT":0},{"OBJECT_NAME":"STARLINK-3190","OBJECT_ID":"2021-115AU","EPOCH":"2026-01-15T23:51:27.416448","MEAN_MOTION":15.08843363,"ECCENTRICITY":0.00012429,"INCLINATION":53.2183,"RA_OF_ASC_NODE":15.6897,"ARG_OF_PERICENTER":94.0658,"MEAN_ANOMALY":266.0477,"EPHEMERIS_TYPE":0,"CLASSIFICATION_TYPE":"U","NORAD_CAT_ID":49766,"ELEMENT_SET_NO":999,"REV_AT_EPOCH":22772,"BSTAR":-1.954639e-6,"MEAN_MOTION_DOT":-3.19e-6,"MEAN_MOTION_DDOT":0},{"OBJECT_NAME":"STARLINK-3192","OBJECT_ID":"2021-115AV","EPOCH":"2026-01-15T23:39:28.901088","MEAN_MOTION":15.08840702,"ECCENTRICITY":0.00013146,"INCLINATION":53.218,"RA_OF_ASC_NODE":15.7182,"ARG_OF_PERICENTER":88.9335,"MEAN_ANOMALY":271.1808,"EPHEMERIS_TYPE":0,"CLASSIFICATION_TYPE":"U","NORAD_CAT_ID":49767,"ELEMENT_SET_NO":999,"REV_AT_EPOCH":22772,"BSTAR":1.6413329e-5,"MEAN_MOTION_DOT":-2.7e-7,"MEAN_MOTION_DDOT":0},{"OBJECT_NAME":"STARLINK-3196","OBJECT_ID":"2021-115AW","EPOCH":"2026-01-16T00:00:40.786848","MEAN_MOTION":15.08835968,"ECCENTRICITY":0.00012563,"INCLINATION":53.2186,"RA_OF_ASC_NODE":15.653,"ARG_OF_PERICENTER":88.6852,"MEAN_ANOMALY":271.4284,"EPHEMERIS_TYPE":0,"CLASSIFICATION_TYPE":"U","NORAD_CAT_ID":49768,"ELEMENT_SET_NO":999,"REV_AT_EPOCH":22772,"BSTAR":-3.7851958e-5,"MEAN_MOTION_DOT":-8.9e-6,"MEAN_MOTION_DDOT":0},{"OBJECT_NAME":"STARLINK-3208","OBJECT_ID":"2021-115AX","EPOCH":"2026-01-15T06:32:49.182144","MEAN_MOTION":15.08841538,"ECCENTRICITY":0.00015178,"INCLINATION":53.2187,"RA_OF_ASC_NODE":18.9677,"ARG_OF_PERICENTER":87.6012,"MEAN_ANOMALY":272.5154,"EPHEMERIS_TYPE":0,"CLASSIFICATION_TYPE":"U","NORAD_CAT_ID":49769,"ELEMENT_SET_NO":999,"REV_AT_EPOCH":22761,"BSTAR":1.9577132e-5,"MEAN_MOTION_DOT":2.4e-7,"MEAN_MOTION_DDOT":0},{"OBJECT_NAME":"STARLINK-3191","OBJECT_ID":"2021-115AY","EPOCH":"2026-01-15T06:43:24.914208","MEAN_MOTION":15.0884253,"ECCENTRICITY":0.00015518,"INCLINATION":53.2197,"RA_OF_ASC_NODE":18.9329,"ARG_OF_PERICENTER":95.8742,"MEAN_ANOMALY":264.2427,"EPHEMERIS_TYPE":0,"CLASSIFICATION_TYPE":"U","NORAD_CAT_ID":49770,"ELEMENT_SET_NO":999,"REV_AT_EPOCH":22873,"BSTAR":1.1653014e-5,"MEAN_MOTION_DOT":-1.03e-6,"MEAN_MOTION_DDOT":0},{"OBJECT_NAME":"STARLINK-3201","OBJECT_ID":"2021-115AZ","EPOCH":"2026-01-15T09:52:48.249120","MEAN_MOTION":15.08838539,"ECCENTRICITY":0.00012758,"INCLINATION":53.2187,"RA_OF_ASC_NODE":18.2947,"ARG_OF_PERICENTER":87.8645,"MEAN_ANOMALY":272.2493,"EPHEMERIS_TYPE":0,"CLASSIFICATION_TYPE":"U","NORAD_CAT_ID":49771,"ELEMENT_SET_NO":999,"REV_AT_EPOCH":22763,"BSTAR":3.7331848e-5,"MEAN_MOTION_DOT":3.06e-6,"MEAN_MOTION_DDOT":0}]
