STARLINK-3210           
1 49755U 21115AH  26015.34547451 -.00000227  00000+0  38086-5 0  9998
2 49755  53.2189  28.6417 0001354  87.3703 272.7444 15.08838375227480
STARLINK-3207           
1 49756U 21115AJ  26015.43007017 -.00000004  00000+0  17868-4 0  9995
2 49756  53.2192  18.2119 0001538  79.4486 280.6679 15.08838540227632
STARLINK-3197           
1 49757U 21115AK  26015.95358924  .00000621  00000+0  57124-4 0  9992
2 49757  53.2204  15.8720 0001485  68.4324 291.6826 15.08840079227713
STARLINK-3194           
1 49758U 21115AL  26015.37118120  .00000611  00000+0  56470-4 0  9993
2 49758  53.2196  18.4763 0001386  89.1740 270.9411 15.08844395227627
STARLINK-3204           
1 49759U 21115AM  26015.16143317 -.00000247  00000+0  25638-5 0  9996
2 49759  53.2196  19.4171 0001375  87.4047 272.7102 15.08843146227597
STARLINK-3199           
1 49760U 21115AN  26015.37855326  .00000113  00000+0  25197-4 0  9991
2 49760  53.2195  18.4448 0001379  92.4750 267.6400 15.08837555227631
STARLINK-3203           
1 49761U 21115AP  26015.43375036 -.00000412  00000+0 -77720-5 0  9998
2 49761  53.2202  18.1960 0001284  80.7046 279.4092 15.08849106227633
STARLINK-3195           
1 49762U 21115AQ  26015.38592968  .00001462  00000+0  10994-3 0  9990
2 49762  53.2184  18.4123 0001532 101.3074 258.8090 15.08833579227630
STARLINK-3198           
1 49763U 21115AR  26015.17615478 -.00000032  00000+0  16113-4 0  9993
2 49763  53.2191  19.3525 0001488  88.9626 271.1536 15.08837980227608
STARLINK-3227           
1 49765U 21115AT  26015.97935002 -.00000103  00000+0  11637-4 0  9996
2 49765  53.2198  15.7568 0001517  90.8460 269.2706 15.08838121227723
STARLINK-3190           
1 49766U 21115AU  26015.99406732 -.00000319  00000+0 -19546-5 0  9990
2 49766  53.2183  15.6897 0001242  94.0658 266.0477 15.08843363227726
STARLINK-3192           
1 49767U 21115AV  26015.98575117 -.00000027  00000+0  16413-4 0  9998
2 49767  53.2180  15.7182 0001314  88.9335 271.1808 15.08840702227725
STARLINK-3196           
1 49768U 21115AW  26016.00047207 -.00000890  00000+0 -37852-4 0  9996
2 49768  53.2186  15.6530 0001256  88.6852 271.4284 15.08835968227723
STARLINK-3208           
1 49769U 21115AX  26015.27279146  .00000024  00000+0  19577-4 0  9995
2 49769  53.2187  18.9677 0001517  87.6012 272.5154 15.08841538227616
STARLINK-3191           
1 49770U 21115AY  26015.28014947 -.00000103  00000+0  11653-4 0  9990
2 49770  53.2197  18.9329 0001551  95.8742 264.2427 15.08842530228730
STARLINK-3201           
1 49771U 21115AZ  26015.41166955  .00000306  00000+0  37332-4 0  9999
2 49771  53.2187  18.2947 0001275  87.8645 272.2493 15.08838539227639
